NORAD_CAT_ID,OBJECT_NAME,OBJECT_TYPE,EPOCH,MEAN_MOTION,ECCENTRICITY,INCLINATION,RA_OF_ASC_NODE,ARG_OF_PERICENTER,MEAN_ANOMALY,BSTAR,MEAN_MOTION_DOT,MEAN_MOTION_DDOT,TLE_LINE0,TLE_LINE1,TLE_LINE2,SEMIMAJOR_AXIS,PERIOD,APOGEE,PERIGEE,DECAYED
53849.0,STARLINK-4770,PAYLOAD,2022-12-10 14:00:01,15.22041274,0.0001393,53.2174,214.3636,92.1803,112.7001,-0.053921,-0.01151359,0.0,0 STARLINK-4770,1 53849U 22114AH  22344.58334491 -.01151359  00000-0 -53921-1 0  9999,2 53849  53.2174 214.3636 0001393  92.1803 112.7001 15.22041274  1301,6877.821,94.61,500.644,498.728,0.0
53849.0,STARLINK-4770,PAYLOAD,2022-12-11 00:00:00,15.21023623,0.0001262,53.2176,212.4583,72.0701,256.3559,-0.055483,-0.01149714,0.0,0 STARLINK-4770,1 53849U 22114AH  22345.00001157 -.01149714  00000-0 -55483-1 0  9994,2 53849  53.2176 212.4583 0001262  72.0701 256.3559 15.21023623  1302,6880.889,94.673,503.622,501.885,0.0
53849.0,STARLINK-4770,PAYLOAD,2022-12-11 08:00:01,15.20210765,0.0001243,53.2174,210.9331,64.0185,290.2092,-0.056946,-0.0115197,0.0,0 STARLINK-4770,1 53849U 22114AH  22345.33335648 -.01151970  00000-0 -56946-1 0  9997,2 53849  53.2174 210.9331 0001243  64.0185 290.2092 15.20210765 13632,6883.340999999999,94.724,506.062,504.351,0.0
53849.0,STARLINK-4770,PAYLOAD,2022-12-11 14:00:01,15.19598088,0.0001330999999999,53.2175,209.7908,102.1714,180.6555,-0.057742,-0.01147676,0.0,0 STARLINK-4770,1 53849U 22114AH  22345.58334491 -.01147676  00000-0 -57742-1 0  9992,2 53849  53.2175 209.7908 0001331 102.1714 180.6555 15.19598088  1301,6885.191,94.762,507.973,506.14,0.0
53849.0,STARLINK-4770,PAYLOAD,2022-12-11 22:00:01,15.18784763,0.0001295,53.2175,208.2722,77.6673,229.2478,-0.059157,-0.0114819,0.0,0 STARLINK-4770,1 53849U 22114AH  22345.91668981 -.01148190  00000-0 -59157-1 0  9997,2 53849  53.2175 208.2722 0001295  77.6673 229.2478 15.18784763  1308,6887.649,94.813,510.406,508.622,0.0
53849.0,STARLINK-4770,PAYLOAD,2022-12-12 08:00:01,15.17768291,0.0001327,53.2175,206.3732,61.58,3.9303,-0.061005,-0.01149545,0.0,0 STARLINK-4770,1 53849U 22114AH  22346.33334491 -.01149545  00000-0 -61005-1 0  9990,2 53849  53.2175 206.3732 0001327  61.5800   3.9303 15.17768291 13784,6890.724,94.876,513.503,511.675,0.0
53849.0,STARLINK-4770,PAYLOAD,2022-12-12 14:00:01,15.17155336,0.0001219,53.2176,205.2353,101.6157,250.3568,-0.061808,-0.01144628,0.0,0 STARLINK-4770,1 53849U 22114AH  22346.58334491 -.01144628  00000-0 -61808-1 0  9995,2 53849  53.2176 205.2353 0001219 101.6157 250.3568 15.17155336  1309,6892.58,94.914,515.285,513.605,0.0
53849.0,STARLINK-4770,PAYLOAD,2022-12-12 22:00:00,15.1634487,0.0001293,53.2175,203.7224,66.5772,306.4858,-0.063596,-0.01150157,0.0,0 STARLINK-4770,1 53849U 22114AH  22346.91667824 -.01150157  00000-0 -63596-1 0  9991,2 53849  53.2175 203.7224 0001293  66.5772 306.4858 15.16344870  1309,6895.036,94.965,517.7919999999998,516.009,0.0
53849.0,STARLINK-4770,PAYLOAD,2022-12-13 06:00:00,15.15530497,0.0001167,53.2173,202.2087,92.1609,301.0178,-0.065046,-0.01149313,0.0,0 STARLINK-4770,1 53849U 22114AH  22347.25001157 -.01149313  00000-0 -65046-1 0  9994,2 53849  53.2173 202.2087 0001167  92.1609 301.0178 15.15530497 13920,6897.505,95.016,520.175,518.566,0.0
53849.0,STARLINK-4770,PAYLOAD,2022-12-13 14:00:01,15.14714293,0.000129,53.2175,200.6968,69.1682,343.1487,-0.066273,-0.01144492,0.0,0 STARLINK-4770,1 53849U 22114AH  22347.58334491 -.01144492  00000-0 -66273-1 0  9996,2 53849  53.2175 200.6968 0001290  69.1682 343.1487 15.14714293  1300,6899.983,95.067,522.738,520.9580000000002,0.0
53849.0,STARLINK-4770,PAYLOAD,2022-12-13 22:00:00,15.13903917,0.0001308,53.2175,199.1896,76.5339,353.9399,-0.068202,-0.01150528,0.0,0 STARLINK-4770,1 53849U 22114AH  22347.91667824 -.01150528  00000-0 -68202-1 0  9993,2 53849  53.2175 199.1896 0001308  76.5339 353.9399 15.13903917  1306,6902.445,95.118,525.2130000000002,523.4069999999998,0.0
53849.0,STARLINK-4770,PAYLOAD,2022-12-14 06:00:00,15.13088466,0.0001391,53.2174,197.6814,62.4825,25.174,-0.069601,-0.01147648,0.0,0 STARLINK-4770,1 53849U 22114AH  22348.25001157 -.01147648  00000-0 -69601-1 0  9995,2 53849  53.2174 197.6814 0001391  62.4825  25.1740 15.13088466 14073,6904.925,95.17,527.75,525.8290000000002,0.0
53849.0,STARLINK-4770,PAYLOAD,2022-12-14 14:00:01,15.12281643,0.0001357,53.2162,196.1749,67.3128,36.5439,-0.07178,-0.01156286,0.0,0 STARLINK-4770,1 53849U 22114AH  22348.58334491 -.01156286  00000-0 -71780-1 0  9990,2 53849  53.2162 196.1749 0001357  67.3128  36.5439 15.12281643  1307,6907.380999999999,95.22,530.183,528.308,0.0
53849.0,STARLINK-4770,PAYLOAD,2022-12-14 22:00:00,15.11459641,0.0001374,53.2168,194.6735,84.3101,34.7755,-0.072733,-0.01145858,0.0,0 STARLINK-4770,1 53849U 22114AH  22348.91667824 -.01145858  00000-0 -72733-1 0  9998,2 53849  53.2168 194.6735 0001374  84.3101  34.7755 15.11459641  1305,6909.885,95.272,532.6990000000002,530.8,0.0
53849.0,STARLINK-4770,PAYLOAD,2022-12-15 10:00:00,15.10238925,0.000125,53.2173,192.4204,103.9284,216.1633,-0.075352,-0.01147299,0.0,0 STARLINK-4770,1 53849U 22114AH  22349.41667824 -.01147299  00000-0 -75352-1 0  9995,2 53849  53.2173 192.4204 0001250 103.9284 216.1633 15.10238925 14259,6913.608,95.349,536.337,534.609,0.0
53849.0,STARLINK-4770,PAYLOAD,2022-12-15 14:00:01,15.09735006,0.0001396999999999,53.2176,191.6708,87.6635,58.9586,-0.058494,-0.00885155,0.0,0 STARLINK-4770,1 53849U 22114AH  22349.58334491 -.00885155  00000-0 -58494-1 0  9991,2 53849  53.2176 191.6708 0001397  87.6635  58.9586 15.09735006  1303,6915.146,95.381,537.977,536.045,0.0
53849.0,STARLINK-4770,PAYLOAD,2022-12-15 22:00:00,15.08986352,0.0001366,53.2175,190.175,70.6423,88.275,-0.014665,-0.00227309,0.0,0 STARLINK-4770,1 53849U 22114AH  22349.91667824 -.00227309  00000-0 -14665-1 0  9990,2 53849  53.2175 190.1750 0001366  70.6423  88.2750 15.08986352  1306,6917.433000000001,95.428,540.243,538.3530000000002,0.0
53849.0,STARLINK-4770,PAYLOAD,2022-12-16 04:00:00,15.08837434,0.0001434,53.2173,189.0518,66.2657,11.4221,-7.5426e-05,-1.488e-05,0.0,0 STARLINK-4770,1 53849U 22114AH  22350.16667824 -.00001488  00000-0 -75426-4 0  9992,2 53849  53.2173 189.0518 0001434  66.2657  11.4221 15.08837434 14366,6917.888000000001,95.438,540.745,538.761,0.0
53849.0,STARLINK-4770,PAYLOAD,2022-12-16 08:00:01,15.08850858,0.0001286,53.2088,188.2973,76.3038,187.5723,-0.0058388999999999,-0.00092055,0.0,0 STARLINK-4770,1 53849U 22114AH  22350.33334491 -.00092055  00000-0 -58389-2 0  9999,2 53849  53.2088 188.2973 0001286  76.3038 187.5723 15.08850858 14386,6917.847,95.437,540.602,538.823,0.0
53849.0,STARLINK-4770,PAYLOAD,2022-12-16 14:00:01,15.08790232,0.0001405,53.2102,187.1747,80.4277,102.1305,0.00015179,2.125e-05,0.0,0 STARLINK-4770,1 53849U 22114AH  22350.58334491  .00002125  00000-0  15179-3 0  9994,2 53849  53.2102 187.1747 0001405  80.4277 102.1305 15.08790232  1300,6918.033,95.441,540.869,538.9259999999998,0.0
53849.0,STARLINK-4770,PAYLOAD,2022-12-16 22:00:00,15.08774552,0.0001501999999999,53.2121,185.68,69.6078,124.4913,0.0014803,0.00023307,0.0,0 STARLINK-4770,1 53849U 22114AH  22350.91667824  .00023307  00000-0  14803-2 0  9997,2 53849  53.2121 185.6800 0001502  69.6078 124.4913 15.08774552  1309,6918.08,95.442,540.985,538.906,0.0
53849.0,STARLINK-4770,PAYLOAD,2022-12-17 00:00:00,15.0877834,0.000149,53.2124,185.306,68.8345,218.1462,0.0010284,0.00016089,0.0,0 STARLINK-4770,1 53849U 22114AH  22351.00001157  .00016089  00000-0  10284-2 0  9997,2 53849  53.2124 185.3060 0001490  68.8345 218.1462 15.08778340 14483,6918.069,95.441,540.965,538.903,0.0
53849.0,STARLINK-4770,PAYLOAD,2022-12-17 14:00:01,15.08755624,0.0001520999999999,53.2136,182.6855,79.577,137.6093,0.0036203,0.00057667,0.0,0 STARLINK-4770,1 53849U 22114AH  22351.58335648  .00057667  00000-0  36203-2 0  9991,2 53849  53.2136 182.6855 0001521  79.5770 137.6093 15.08755624  1306,6918.138000000001,95.443,541.056,538.951,0.0
53849.0,STARLINK-4770,PAYLOAD,2022-12-17 22:00:00,15.08778981,0.0001529,53.2143,181.1909,68.2413,160.4043,0.0021243,0.00033625,0.0,0 STARLINK-4770,1 53849U 22114AH  22351.91667824  .00033625  00000-0  21243-2 0  9998,2 53849  53.2143 181.1909 0001529  68.2413 160.4043 15.08778981  1305,6918.066999999999,95.441,540.99,538.874,0.0
53849.0,STARLINK-4770,PAYLOAD,2022-12-18 08:00:01,15.0878593,0.0001392,53.2154,179.3188,75.442,257.6356,0.0018742,0.00029622,0.0,0 STARLINK-4770,1 53849U 22114AH  22352.33334491  .00029622  00000-0  18742-2 0  9998,2 53849  53.2154 179.3188 0001392  75.4420 257.6356 15.08785930 14695,6918.045999999999,95.441,540.874,538.948,0.0
53849.0,STARLINK-4770,PAYLOAD,2022-12-18 14:00:01,15.0880171,0.0001418,53.2159,178.1973,78.3182,173.4115,0.0027366,0.00043488,0.0,0 STARLINK-4770,1 53849U 22114AH  22352.58334491  .00043488  00000-0  27366-2 0  9993,2 53849  53.2159 178.1973 0001418  78.3182 173.4115 15.08801710  1302,6917.996999999999,95.44,540.8430000000002,538.881,0.0
53849.0,STARLINK-4770,PAYLOAD,2022-12-18 22:00:00,15.08745162,0.0001536,53.2165,176.7046,64.3112,198.9933,0.010816,0.00175718,0.0,0 STARLINK-4770,1 53849U 22114AH  22352.91667824  .00175718  00000-0  10816-1 0  9992,2 53849  53.2165 176.7046 0001536  64.3112 198.9933 15.08745162  1301,6918.17,95.444,541.0980000000002,538.9730000000002,0.0
53849.0,STARLINK-4770,PAYLOAD,2022-12-18 22:25:39,15.08796752,0.000126,53.2156,176.6198,89.7145,270.3991,5.1065e-05,5.24e-06,0.0,0 STARLINK-4770,1 53849U 22114AH  22352.93448778  .00000524  00000-0  51065-4 0  9995,2 53849  53.2156 176.6198 0001260  89.7145 270.3991 15.08796752 14785,6918.013000000001,95.44,540.749,539.006,0.0
53849.0,STARLINK-4770,PAYLOAD,2022-12-19 19:05:41,15.08752771,0.0001691,53.216,172.7552,67.3109,292.8062,0.0010544,0.00016493,0.0,0 STARLINK-4770,1 53849U 22114AH  22353.79561731  .00016493  00000-0  10544-2 0  9992,2 53849  53.2160 172.7552 0001691  67.3109 292.8062 15.08752771 15457,6918.147,95.443,541.182,538.842,0.0
